{
  "type": "FeatureCollection",
  "features": [
    {
      "type": "Feature",
      "properties": {
        "norad_id": 58647,
        "name": "TIANMU-1 13",
        "group": "weather",
        "lat": 27.860770275016925,
        "lon": -1.0249049917791588,
        "alt_km": 492.3506107855337,
        "timestamp": "2025-12-09T04:51:47.151915+00:00",
        "meta_object_name": "TIANMU-1 13",
        "meta_object_id": "2023-205C",
        "meta_epoch": "2025-12-08T19:17:17.127744",
        "meta_mean_motion": 15.24450002,
        "meta_eccentricity": 0.000608,
        "meta_inclination": 97.3622,
        "meta_ra_of_asc_node": 2.5021,
        "meta_arg_of_pericenter": 285.2602,
        "meta_mean_anomaly": 74.7963,
        "meta_ephemeris_type": 0,
        "meta_classification_type": "U",
        "meta_norad_cat_id": 58647,
        "meta_element_set_no": 999,
        "meta_rev_at_epoch": 10847,
        "meta_bstar": 0.00041201,
        "meta_mean_motion_dot": 0.00010053,
        "meta_mean_motion_ddot": 0,
        "tle_line1": "1 58647U 23205C   25342.80367046  .00010053  00000+0  41201-3 0  9991",
        "tle_line2": "2 58647  97.3622   2.5021 0006080 285.2602  74.7963 15.24450002108479"
      },
      "geometry": {
        "type": "Point",
        "coordinates": [
          -1.0249049917791588,
          27.860770275016925
        ]
      }
    },
    {
      "type": "Feature",
      "properties": {
        "norad_id": 58648,
        "name": "TIANMU-1 14",
        "group": "weather",
        "lat": 59.730163230913355,
        "lon": -164.96704923027994,
        "alt_km": 491.40163418454995,
        "timestamp": "2025-12-09T04:51:47.151928+00:00",
        "meta_object_name": "TIANMU-1 14",
        "meta_object_id": "2023-205D",
        "meta_epoch": "2025-12-08T20:27:50.383872",
        "meta_mean_motion": 15.24435312,
        "meta_eccentricity": 0.0006941,
        "meta_inclination": 97.3554,
        "meta_ra_of_asc_node": 1.9025,
        "meta_arg_of_pericenter": 290.1487,
        "meta_mean_anomaly": 69.9004,
        "meta_ephemeris_type": 0,
        "meta_classification_type": "U",
        "meta_norad_cat_id": 58648,
        "meta_element_set_no": 999,
        "meta_rev_at_epoch": 10848,
        "meta_bstar": 0.00040114,
        "meta_mean_motion_dot": 9.782e-05,
        "meta_mean_motion_ddot": 0,
        "tle_line1": "1 58648U 23205D   25342.85266648  .00009782  00000+0  40114-3 0  9992",
        "tle_line2": "2 58648  97.3554   1.9025 0006941 290.1487  69.9004 15.24435312108483"
      },
      "geometry": {
        "type": "Point",
        "coordinates": [
          -164.96704923027994,
          59.730163230913355
        ]
      }
    },
    {
      "type": "Feature",
      "properties": {
        "norad_id": 58660,
        "name": "TIANMU-1 19",
        "group": "weather",
        "lat": -27.809047701228398,
        "lon": 98.19894418428416,
        "alt_km": 487.1645954230098,
        "timestamp": "2025-12-09T04:51:47.151938+00:00",
        "meta_object_name": "TIANMU-1 19",
        "meta_object_id": "2023-208A",
        "meta_epoch": "2025-12-08T21:07:33.235392",
        "meta_mean_motion": 15.27740206,
        "meta_eccentricity": 0.0004051,
        "meta_inclination": 97.4391,
        "meta_ra_of_asc_node": 93.9255,
        "meta_arg_of_pericenter": 270.4041,
        "meta_mean_anomaly": 89.6734,
        "meta_ephemeris_type": 0,
        "meta_classification_type": "U",
        "meta_norad_cat_id": 58660,
        "meta_element_set_no": 999,
        "meta_rev_at_epoch": 10823,
        "meta_bstar": 0.00048843,
        "meta_mean_motion_dot": 0.00013175,
        "meta_mean_motion_ddot": 0,
        "tle_line1": "1 58660U 23208A   25342.88024578  .00013175  00000+0  48843-3 0  9994",
        "tle_line2": "2 58660  97.4391  93.9255 0004051 270.4041  89.6734 15.27740206108236"
      },
      "geometry": {
        "type": "Point",
        "coordinates": [
          98.19894418428416,
          -27.809047701228398
        ]
      }
    },
    {
      "type": "Feature",
      "properties": {
        "norad_id": 58661,
        "name": "TIANMU-1 20",
        "group": "weather",
        "lat": 30.782319856562946,
        "lon": 90.23078269186193,
        "alt_km": 478.90179659358637,
        "timestamp": "2025-12-09T04:51:47.151948+00:00",
        "meta_object_name": "TIANMU-1 20",
        "meta_object_id": "2023-208B",
        "meta_epoch": "2025-12-08T19:18:11.632320",
        "meta_mean_motion": 15.28929778,
        "meta_eccentricity": 0.0006348,
        "meta_inclination": 97.4329,
        "meta_ra_of_asc_node": 94.2934,
        "meta_arg_of_pericenter": 282.553,
        "meta_mean_anomaly": 77.4999,
        "meta_ephemeris_type": 0,
        "meta_classification_type": "U",
        "meta_norad_cat_id": 58661,
        "meta_element_set_no": 999,
        "meta_rev_at_epoch": 10829,
        "meta_bstar": 0.00047211,
        "meta_mean_motion_dot": 0.00013208,
        "meta_mean_motion_ddot": 0,
        "tle_line1": "1 58661U 23208B   25342.80430130  .00013208  00000+0  47211-3 0  9997",
        "tle_line2": "2 58661  97.4329  94.2934 0006348 282.5530  77.4999 15.28929778108292"
      },
      "geometry": {
        "type": "Point",
        "coordinates": [
          90.23078269186193,
          30.782319856562946
        ]
      }
    },
    {
      "type": "Feature",
      "properties": {
        "norad_id": 58662,
        "name": "TIANMU-1 21",
        "group": "weather",
        "lat": 3.918484282574763,
        "lon": 96.0711392298545,
        "alt_km": 474.00281618241934,
        "timestamp": "2025-12-09T04:51:47.151958+00:00",
        "meta_object_name": "TIANMU-1 21",
        "meta_object_id": "2023-208C",
        "meta_epoch": "2025-12-08T21:00:18.048096",
        "meta_mean_motion": 15.31423335,
        "meta_eccentricity": 0.000592,
        "meta_inclination": 97.4378,
        "meta_ra_of_asc_node": 96.2554,
        "meta_arg_of_pericenter": 276.7587,
        "meta_mean_anomaly": 83.298,
        "meta_ephemeris_type": 0,
        "meta_classification_type": "U",
        "meta_norad_cat_id": 58662,
        "meta_element_set_no": 999,
        "meta_rev_at_epoch": 10840,
        "meta_bstar": 0.00052124,
        "meta_mean_motion_dot": 0.00015763,
        "meta_mean_motion_ddot": 0,
        "tle_line1": "1 58662U 23208C   25342.87520889  .00015763  00000+0  52124-3 0  9993",
        "tle_line2": "2 58662  97.4378  96.2554 0005920 276.7587  83.2980 15.31423335108409"
      },
      "geometry": {
        "type": "Point",
        "coordinates": [
          96.0711392298545,
          3.918484282574763
        ]
      }
    },
    {
      "type": "Feature",
      "properties": {
        "norad_id": 58663,
        "name": "TIANMU-1 22",
        "group": "weather",
        "lat": -23.5993719139964,
        "lon": 97.57988821791365,
        "alt_km": 487.18634165877756,
        "timestamp": "2025-12-09T04:51:47.151968+00:00",
        "meta_object_name": "TIANMU-1 22",
        "meta_object_id": "2023-208D",
        "meta_epoch": "2025-12-08T21:06:21.898368",
        "meta_mean_motion": 15.27502421,
        "meta_eccentricity": 0.0002815,
        "meta_inclination": 97.4385,
        "meta_ra_of_asc_node": 93.9854,
        "meta_arg_of_pericenter": 306.2293,
        "meta_mean_anomaly": 53.8686,
        "meta_ephemeris_type": 0,
        "meta_classification_type": "U",
        "meta_norad_cat_id": 58663,
        "meta_element_set_no": 999,
        "meta_rev_at_epoch": 10824,
        "meta_bstar": 0.00045872,
        "meta_mean_motion_dot": 0.00012277,
        "meta_mean_motion_ddot": 0,
        "tle_line1": "1 58663U 23208D   25342.87942012  .00012277  00000+0  45872-3 0  9999",
        "tle_line2": "2 58663  97.4385  93.9854 0002815 306.2293  53.8686 15.27502421108245"
      },
      "geometry": {
        "type": "Point",
        "coordinates": [
          97.57988821791365,
          -23.5993719139964
        ]
      }
    },
    {
      "type": "Feature",
      "properties": {
        "norad_id": 58700,
        "name": "TIANMU-1 15",
        "group": "weather",
        "lat": 36.79999216684638,
        "lon": -9.687076743974536,
        "alt_km": 493.0642394880133,
        "timestamp": "2025-12-09T04:51:47.151978+00:00",
        "meta_object_name": "TIANMU-1 15",
        "meta_object_id": "2024-004A",
        "meta_epoch": "2025-12-08T20:21:46.462752",
        "meta_mean_motion": 15.24601326,
        "meta_eccentricity": 0.0005365,
        "meta_inclination": 97.4629,
        "meta_ra_of_asc_node": 164.3324,
        "meta_arg_of_pericenter": 314.7161,
        "meta_mean_anomaly": 45.3639,
        "meta_ephemeris_type": 0,
        "meta_classification_type": "U",
        "meta_norad_cat_id": 58700,
        "meta_element_set_no": 999,
        "meta_rev_at_epoch": 10675,
        "meta_bstar": 0.00044497,
        "meta_mean_motion_dot": 0.0001091,
        "meta_mean_motion_ddot": 0,
        "tle_line1": "1 58700U 24004A   25342.84845443  .00010910  00000+0  44497-3 0  9997",
        "tle_line2": "2 58700  97.4629 164.3324 0005365 314.7161  45.3639 15.24601326106753"
      },
      "geometry": {
        "type": "Point",
        "coordinates": [
          -9.687076743974536,
          36.79999216684638
        ]
      }
    }
  ]
}